NORAD_CAT_ID,OBJECT_NAME,OBJECT_TYPE,EPOCH,MEAN_MOTION,ECCENTRICITY,INCLINATION,RA_OF_ASC_NODE,ARG_OF_PERICENTER,MEAN_ANOMALY,BSTAR,MEAN_MOTION_DOT,MEAN_MOTION_DDOT,TLE_LINE0,TLE_LINE1,TLE_LINE2,SEMIMAJOR_AXIS,PERIOD,APOGEE,PERIGEE,DECAYED
51758.0,STARLINK-3458,PAYLOAD,2022-11-21 05:08:48,15.08841754,0.0002738,53.2199,316.2264,29.5884,330.5262,3.2804e-05,2.34e-06,0.0,0 STARLINK-3458,1 51758U 22016AW  22325.21444718  .00000234  00000-0  32804-4 0  9992,2 51758  53.2199 316.2264 0002738  29.5884 330.5262 15.08841754 43019,6917.875,95.437,541.634,537.846,0.0
51758.0,STARLINK-3458,PAYLOAD,2022-11-21 11:30:21,15.08831261,0.0002931,53.22,315.0369,30.8057,329.3107,-6.250300000000001e-05,-1.283e-05,0.0,0 STARLINK-3458,1 51758U 22016AW  22325.47941645 -.00001283  00000-0 -62503-4 0  9997,2 51758  53.2200 315.0369 0002931  30.8057 329.3107 15.08831261 43057,6917.906999999997,95.438,541.8,537.744,0.0
51758.0,STARLINK-3458,PAYLOAD,2022-11-22 04:59:35,15.08835252,0.0002675,53.2197,311.7657,29.0668,331.0473,4.9112e-05,4.93e-06,0.0,0 STARLINK-3458,1 51758U 22016AW  22326.20805408  .00000493  00000-0  49112-4 0  9996,2 51758  53.2197 311.7657 0002675  29.0668 331.0473 15.08835252 43160,6917.895,95.438,541.61,537.909,0.0
51758.0,STARLINK-3458,PAYLOAD,2022-11-22 08:10:21,15.08838605,0.0002682,53.2196,311.1709,29.974,330.1405,7.8478e-05,9.61e-06,0.0,0 STARLINK-3458,1 51758U 22016AW  22326.34053184  .00000961  00000-0  78478-4 0  9994,2 51758  53.2196 311.1709 0002682  29.9740 330.1405 15.08838605 43181,6917.885,95.438,541.605,537.894,0.0
51758.0,STARLINK-3458,PAYLOAD,2022-11-22 16:07:17,15.08846058,0.000261,53.2195,309.6841,29.7762,330.3379,0.00010993,1.462e-05,0.0,0 STARLINK-3458,1 51758U 22016AW  22326.67172623  .00001462  00000-0  10993-3 0  9994,2 51758  53.2195 309.6841 0002610  29.7762 330.3379 15.08846058 43231,6917.861999999999,95.437,541.5319999999998,537.9209999999998,0.0
51758.0,STARLINK-3458,PAYLOAD,2022-11-23 08:01:08,15.08838025,0.0002595,53.2185,306.7105,30.5833,329.531,-0.00012556,-2.286e-05,0.0,0 STARLINK-3458,1 51758U 22016AW  22327.33412757 -.00002286  00000-0 -12556-3 0  9997,2 51758  53.2185 306.7105 0002595  30.5833 329.5310 15.08838025 43333,6917.886,95.438,541.547,537.956,0.0
51758.0,STARLINK-3458,PAYLOAD,2022-11-23 15:58:04,15.08840414,0.0002603,53.2186,305.2236,28.2397,331.8736,0.00011562,1.552e-05,0.0,0 STARLINK-3458,1 51758U 22016AW  22327.66532793  .00001552  00000-0  11562-3 0  9995,2 51758  53.2186 305.2236 0002603  28.2397 331.8736 15.08840414 43380,6917.879,95.438,541.545,537.943,0.0
51758.0,STARLINK-3458,PAYLOAD,2022-11-24 07:51:55,15.08842463,0.0002571,53.2197,302.2498,29.6557,330.4581,0.00012876,1.762e-05,0.0,0 STARLINK-3458,1 51758U 22016AW  22328.32772983  .00001762  00000-0  12876-3 0  9998,2 51758  53.2197 302.2498 0002571  29.6557 330.4581 15.08842463 43486,6917.873000000001,95.437,541.516,537.9590000000002,0.0
51758.0,STARLINK-3458,PAYLOAD,2022-11-25 04:31:56,15.08838475,0.0002593,53.2195,298.3843,29.5719,330.542,9.1894e-05,1.174e-05,0.0,0 STARLINK-3458,1 51758U 22016AW  22329.18885230  .00001174  00000-0  91894-4 0  9998,2 51758  53.2195 298.3843 0002593  29.5719 330.5420 15.08838475 43612,6917.885,95.438,541.544,537.956,0.0
51758.0,STARLINK-3458,PAYLOAD,2022-11-25 09:18:06,15.0884086,0.0002631,53.2196,297.4925,29.3263,330.7877,0.00010028,1.308e-05,0.0,0 STARLINK-3458,1 51758U 22016AW  22329.38757062  .00001308  00000-0  10028-3 0  9999,2 51758  53.2196 297.4925 0002631  29.3263 330.7877 15.08840860 43641,6917.878000000002,95.438,541.563,537.923,0.0
51758.0,STARLINK-3458,PAYLOAD,2022-11-25 15:39:38,15.08849657,0.0002624,53.2195,296.3031,29.7392,330.3749,0.00015753,2.22e-05,0.0,0 STARLINK-3458,1 51758U 22016AW  22329.65252435  .00002220  00000-0  15753-3 0  9997,2 51758  53.2195 296.3031 0002624  29.7392 330.3749 15.08849657 43686,6917.851,95.437,541.531,537.901,0.0
51758.0,STARLINK-3458,PAYLOAD,2022-11-26 04:22:44,15.08829524,0.0002554,53.2195,293.9247,30.9554,329.1588,0.00026783,3.976e-05,0.0,0 STARLINK-3458,1 51758U 22016AW  22330.18245573  .00003976  00000-0  26783-3 0  9996,2 51758  53.2195 293.9247 0002554  30.9554 329.1588 15.08829524 43761,6917.9119999999975,95.438,541.544,538.011,0.0
51758.0,STARLINK-3458,PAYLOAD,2022-11-26 07:33:29,15.08844729,0.0002656,53.2195,293.3299,30.5372,329.5774,5.8396e-05,6.41e-06,0.0,0 STARLINK-3458,1 51758U 22016AW  22330.31492819  .00000641  00000-0  58396-4 0  9990,2 51758  53.2195 293.3299 0002656  30.5372 329.5774 15.08844729 43786,6917.866,95.437,541.568,537.894,0.0
51758.0,STARLINK-3458,PAYLOAD,2022-11-27 07:24:16,15.08846542,0.0002737,53.2193,288.8696,30.3657,329.7493,0.00012274,1.666e-05,0.0,0 STARLINK-3458,1 51758U 22016AW  22331.30852317  .00001666  00000-0  12274-3 0  9995,2 51758  53.2193 288.8696 0002737  30.3657 329.7493 15.08846542 43930,6917.86,95.437,541.619,537.832,0.0
51758.0,STARLINK-3458,PAYLOAD,2022-11-27 21:42:45,15.08832748,0.000311,53.2195,286.1931,25.7199,334.3948,-0.00010482,-1.956e-05,0.0,0 STARLINK-3458,1 51758U 22016AW  22331.90469431 -.00001956  00000-0 -10482-3 0  9995,2 51758  53.2195 286.1931 0003110  25.7199 334.3948 15.08832748 44021,6917.903,95.438,541.919,537.616,0.0
51758.0,STARLINK-3458,PAYLOAD,2022-11-28 00:53:32,15.08825654,0.0002647,53.2193,285.5989,27.142,332.971,-2.1056e-05,-6.23e-06,0.0,0 STARLINK-3458,1 51758U 22016AW  22332.03718407 -.00000623  00000-0 -21056-4 0  9990,2 51758  53.2193 285.5989 0002647  27.1420 332.9710 15.08825654 44043,6917.924,95.438,541.62,537.9580000000002,0.0
51758.0,STARLINK-3458,PAYLOAD,2022-11-28 07:15:05,15.08827365,0.0002667,53.2192,284.4095,27.8048,332.3087,-3.0073e-05,-7.67e-06,0.0,0 STARLINK-3458,1 51758U 22016AW  22332.30214532 -.00000767  00000-0 -30073-4 0  9998,2 51758  53.2192 284.4095 0002667  27.8048 332.3087 15.08827365 44089,6917.919,95.438,541.629,537.939,0.0
51758.0,STARLINK-3458,PAYLOAD,2022-11-29 03:55:05,15.08837415,0.000251,53.2205,280.545,30.1309,329.9827,9.0044e-05,1.145e-05,0.0,0 STARLINK-3458,1 51758U 22016AW  22333.16325955  .00001145  00000-0  90044-4 0  9998,2 51758  53.2205 280.5450 0002510  30.1309 329.9827 15.08837415 44216,6917.888000000001,95.438,541.49,538.0169999999998,0.0
51758.0,STARLINK-3458,PAYLOAD,2022-11-29 05:30:28,15.08841816,0.0002747,53.2193,280.2479,27.8429,332.271,0.00019049,2.745e-05,0.0,0 STARLINK-3458,1 51758U 22016AW  22333.22949756  .00002745  00000-0  19049-3 0  9998,2 51758  53.2193 280.2479 0002747  27.8429 332.2710 15.08841816 44227,6917.875,95.437,541.64,537.839,0.0
51758.0,STARLINK-3458,PAYLOAD,2022-11-30 06:56:39,15.08827916,0.0002687,53.2188,275.4891,29.0898,331.0244,4.3167e-05,3.98e-06,0.0,0 STARLINK-3458,1 51758U 22016AW  22334.28934867  .00000398  00000-0  43167-4 0  9993,2 51758  53.2188 275.4891 0002687  29.0898 331.0244 15.08827916 44383,6917.917,95.438,541.641,537.923,0.0
51758.0,STARLINK-3458,PAYLOAD,2022-11-30 13:18:12,15.08832115,0.0002565,53.2194,274.2999,27.3596,332.7531,0.00011879,1.602e-05,0.0,0 STARLINK-3458,1 51758U 22016AW  22334.55430874  .00001602  00000-0  11879-3 0  9995,2 51758  53.2194 274.2999 0002565  27.3596 332.7531 15.08832115 44426,6917.904,95.438,541.544,537.995,0.0
51758.0,STARLINK-3458,PAYLOAD,2022-11-30 19:39:44,15.08839651,0.0002623,53.2195,273.11,30.1202,329.9941,8.995e-05,1.143e-05,0.0,0 STARLINK-3458,1 51758U 22016AW  22334.81926496  .00001143  00000-0  89950-4 0  9990,2 51758  53.2195 273.1100 0002623  30.1202 329.9941 15.08839651 44469,6917.880999999999,95.438,541.561,537.932,0.0
51758.0,STARLINK-3458,PAYLOAD,2022-12-01 03:36:39,15.08852218,0.0002745,53.2194,271.6234,28.1809,331.9331,9.1729e-05,1.172e-05,0.0,0 STARLINK-3458,1 51758U 22016AW  22335.15045671  .00001172  00000-0  91729-4 0  9994,2 51758  53.2194 271.6234 0002745  28.1809 331.9331 15.08852218 44510,6917.843000000003,95.437,541.607,537.809,0.0
51758.0,STARLINK-3458,PAYLOAD,2022-12-01 13:08:58,15.08844402,0.0002719,53.2195,269.8392,27.576,332.5376,5.253600000000001e-05,5.48e-06,0.0,0 STARLINK-3458,1 51758U 22016AW  22335.54790097  .00000548  00000-0  52536-4 0  9995,2 51758  53.2195 269.8392 0002719  27.5760 332.5376 15.08844402 44573,6917.8669999999975,95.437,541.613,537.851,0.0
51758.0,STARLINK-3458,PAYLOAD,2022-12-02 05:02:50,15.08835247,0.0002788,53.2185,266.8656,29.6018,330.5131,8.0273e-05,9.89e-06,0.0,0 STARLINK-3458,1 51758U 22016AW  22336.21030607  .00000989  00000-0  80273-4 0  9992,2 51758  53.2185 266.8656 0002788  29.6018 330.5131 15.08835247 44672,6917.895,95.438,541.689,537.831,0.0
51758.0,STARLINK-3458,PAYLOAD,2022-12-02 12:59:45,15.08842517,0.0002795,53.2185,265.3791,29.6243,330.4907,0.00014941,2.09e-05,0.0,0 STARLINK-3458,1 51758U 22016AW  22336.54150305  .00002090  00000-0  14941-3 0  9999,2 51758  53.2185 265.3791 0002795  29.6243 330.4907 15.08842517 44728,6917.873000000001,95.437,541.6709999999998,537.804,0.0
51758.0,STARLINK-3458,PAYLOAD,2022-12-03 04:53:37,15.08843514,0.0002862,53.2185,262.4053,27.8039,332.3106,2.4315e-05,9.8e-07,0.0,0 STARLINK-3458,1 51758U 22016AW  22337.20390069  .00000098  00000-0  24315-4 0  9999,2 51758  53.2185 262.4053 0002862  27.8039 332.3106 15.08843514 44826,6917.87,95.437,541.715,537.755,0.0
51758.0,STARLINK-3458,PAYLOAD,2022-12-03 06:29:00,15.08843665,0.0002852,53.2184,262.1081,27.8964,332.218,3.6733e-05,2.96e-06,0.0,0 STARLINK-3458,1 51758U 22016AW  22337.27014061  .00000296  00000-0  36733-4 0  9998,2 51758  53.2184 262.1081 0002852  27.8964 332.2180 15.08843665 44838,6917.869000000002,95.437,541.707,537.761,0.0
51758.0,STARLINK-3458,PAYLOAD,2022-12-03 19:12:05,15.0883052,0.0002898,53.2181,259.72900000000004,28.956,331.1593,-5.6183e-05,-1.182e-05,0.0,0 STARLINK-3458,1 51758U 22016AW  22337.80006944 -.00001182  00000-0 -56183-4 0  9996,2 51758  53.2181 259.7290 0002898  28.9560 331.1593 15.08830520 44914,6917.909000000002,95.438,541.779,537.77,0.0
